ONEWEB-0247             
1 48777U 21045L   23351.30724781  .00000143  00000+0  34643-3 0  9991
2 48777  87.9014  80.9385 0001694 149.2862 210.8368 13.15548060124388
ONEWEB-0245             
1 48778U 21045M   23351.30250069  .00000091  00000+0  20897-3 0  9993
2 48778  87.9000  80.9427 0001977 111.5820 248.5521 13.15547504124359
ONEWEB-0229             
1 48779U 21045N   23351.29774643  .00000271  00000+0  68565-3 0  9995
2 48779  87.9006  80.9347 0001269  95.0486 265.0790 13.15547781124387
ONEWEB-0228             
1 48780U 21045P   23351.31275880  .00000221  00000+0  55223-3 0  9991
2 48780  87.9000  80.9116 0001619 108.6911 251.4395 13.15541198124308
ONEWEB-0232             
1 48781U 21045Q   23351.30566510  .00000113  00000+0  26730-3 0  9995
2 48781  87.8954  80.9471 0001516 112.5761 247.5530 13.15549965124625
ONEWEB-0234             
1 48783U 21045S   23351.30332549  .00000153  00000+0  37264-3 0  9998
2 48783  87.9004  80.9181 0003021  90.5062 269.6414 13.15553444124458
